CSS (TIANHE)            
1 48274U 21035A   23310.50769843  .00064443  00000+0  73922-3 0  9993
2 48274  41.4728   9.4327 0003313  62.1521 297.9653 15.61144835144081
